[{"ID":"*PluginMetarDFRwy11","@T":"$-10-15T20:55:10.9633994%","TimeToBeRemoved":"2017-10-15T20:55:10.9633994-02:00","@U":null,"@I":7,"@A":3,"@M":"As pistas em operação são agora as pistas 11L e 11R. Há muita nuvem no céu da capital. (SBBR 152300Z 10003KT 9999 FEW040 BKN100 25/12 Q1018)","@R":{"@N":"*"}},{"ID":"PluginMetarDFVeryCloudy","@T":"$-10-15T20:55:10.9638994%","TimeToBeRemoved":"2017-10-15T20:55:10.9638994-02:00","@U":null,"@I":7,"@A":1,"@M":"Há muita nuvem no céu da capital. (SBBR 152300Z 10003KT 9999 FEW040 BKN100 25/12 Q1018)","@R":{"@N":"*"}},{"ID":"*PluginMetarDFRwy11","@T":"$-10-15T21:06:40.8123491%","TimeToBeRemoved":"2017-10-15T21:06:40.8123491-02:00","@U":null,"@I":7,"@A":3,"@M":"As pistas em operação são agora as pistas 11L e 11R. Céu aberto na capital federal! (SBBR 160000Z 10002KT CAVOK 22/14 Q1019)","@R":{"@N":"*"}},{"ID":"PluginMetarDFClear","@T":"$-10-15T21:06:40.8123491%","TimeToBeRemoved":"2017-10-15T21:06:40.8123491-02:00","@U":null,"@I":7,"@A":1,"@M":"Céu aberto na capital federal! (SBBR 160000Z 10002KT CAVOK 22/14 Q1019)","@R":{"@N":"*"}},{"ID":"*PluginMetarDFRwy11","@T":"$-10-15T21:07:37.8274124%","TimeToBeRemoved":"2017-10-15T21:07:37.8274124-02:00","@U":null,"@I":7,"@A":3,"@M":"As pistas em operação são agora as pistas 11L e 11R. Céu aberto na capital federal! (SBBR 160000Z 10002KT CAVOK 22/14 Q1019)","@R":{"@N":"*"}},{"ID":"PluginMetarDFClear","@T":"$-10-15T21:07:37.8274124%","TimeToBeRemoved":"2017-10-15T21:07:37.8274124-02:00","@U":null,"@I":7,"@A":1,"@M":"Céu aberto na capital federal! (SBBR 160000Z 10002KT CAVOK 22/14 Q1019)","@R":{"@N":"*"}},{"ID":"*PluginMetarDFRwy11","@T":"$-10-15T21:10:50.7256482%","TimeToBeRemoved":"2017-10-15T21:10:50.7256482-02:00","@U":null,"@I":7,"@A":3,"@M":"As pistas em operação são agora as pistas 11L e 11R. Céu aberto na capital federal! (SBBR 160000Z 10002KT CAVOK 22/14 Q1019)","@R":{"@N":"*"}},{"ID":"PluginMetarDFClear","@T":"$-10-15T21:10:50.7256482%","TimeToBeRemoved":"2017-10-15T21:10:50.7256482-02:00","@U":null,"@I":7,"@A":1,"@M":"Céu aberto na capital federal! (SBBR 160000Z 10002KT CAVOK 22/14 Q1019)","@R":{"@N":"*"}},{"ID":"*PluginMetarDFRwy29","@T":"$-10-31T22:56:57.3451346-02:00","TimeToBeRemoved":"2017-10-31T22:56:57.3451346-02:00","@U":null,"@I":7,"@A":3,"@M":"As pistas em operação são agora as pistas  29L e 29R. O aeroporto está enfrentando chuvas moderadas. (SBBR 010000Z 22004KT 9999 FEW040 FEW045TCU BKN080 21/20 Q1018 R ETS)","@R":{"@N":"*"}},{"ID":"PluginMetarDFRain","@T":"$-10-31T22:56:57.3451346-02:00","TimeToBeRemoved":"2017-10-31T22:56:57.3451346-02:00","@U":null,"@I":7,"@A":1,"@M":"O aeroporto está enfrentando chuvas moderadas. (SBBR 010000Z 22004KT 9999 FEW040 FEW045TCU BKN080 21/20 Q1018 R ETS)","@R":{"@N":"*"}},{"ID":"*PluginMetarDFRwy11","@T":"$-11-24T11:28:51.7136713-02:00","TimeToBeRemoved":"2017-11-24T11:28:51.7136713-02:00","@U":null,"@I":7,"@A":3,"@M":"As pistas em operação são agora as pistas 11L e 11R. O aeroporto está enfrentando chuvas moderadas. (SBBR 241315Z 13005KT 9999 TS BKN025 FEW030CB 27/22 Q1019)","@R":{"@N":"*"}},{"ID":"PluginMetarDFRain","@T":"$-11-24T11:28:51.7136713-02:00","TimeToBeRemoved":"2017-11-24T11:28:51.7136713-02:00","@U":null,"@I":7,"@A":1,"@M":"O aeroporto está enfrentando chuvas moderadas. (SBBR 241315Z 13005KT 9999 TS BKN025 FEW030CB 27/22 Q1019)","@R":{"@N":"*"}},{"ID":"*PluginMetarDFRwy11","@T":"$-11-24T11:31:32.2242568-02:00","TimeToBeRemoved":"2017-11-24T11:31:32.2242568-02:00","@U":null,"@I":7,"@A":3,"@M":"As pistas em operação são agora as pistas 11L e 11R. O aeroporto está enfrentando chuvas moderadas. (SBBR 241315Z 13005KT 9999 TS BKN025 FEW030CB 27/22 Q1019)","@R":{"@N":"*"}},{"ID":"PluginMetarDFRain","@T":"$-11-24T11:31:32.2242568-02:00","TimeToBeRemoved":"2017-11-24T11:31:32.2242568-02:00","@U":null,"@I":7,"@A":1,"@M":"O aeroporto está enfrentando chuvas moderadas. (SBBR 241315Z 13005KT 9999 TS BKN025 FEW030CB 27/22 Q1019)","@R":{"@N":"*"}},{"ID":"*PluginMetarDFRwy11","@T":"$-11-24T11:33:56.0548822-02:00","TimeToBeRemoved":"2017-11-24T11:33:56.0548822-02:00","@U":null,"@I":7,"@A":3,"@M":"As pistas em operação são agora as pistas 11L e 11R. O aeroporto está enfrentando chuvas moderadas. (SBBR 241315Z 13005KT 9999 TS BKN025 FEW030CB 27/22 Q1019)","@R":{"@N":"*"}},{"ID":"PluginMetarDFRain","@T":"$-11-24T11:33:56.0548822-02:00","TimeToBeRemoved":"2017-11-24T11:33:56.0548822-02:00","@U":null,"@I":7,"@A":1,"@M":"O aeroporto está enfrentando chuvas moderadas. (SBBR 241315Z 13005KT 9999 TS BKN025 FEW030CB 27/22 Q1019)","@R":{"@N":"*"}},{"ID":"BRAUnknowAirA3B83E","@T":"$-12-06T11:53:32-02:00","TimeToBeRemoved":"$-12-06T12:53:32.7556421-02:00","@U":"A3B83E","@I":1,"@A":1,"@M":"O RIO9813 (PP-WSA) está em cruzeiro modelo Boeing 737-400. #Avião #RobôBum","@R":{"@N":"BRA"}},{"ID":"BRAUnknowAirE47EB2","@T":"$-12-06T11:53:32-02:00","TimeToBeRemoved":"$-12-06T12:53:32.7566421-02:00","@U":"E47EB2","@I":1,"@A":1,"@M":"O PR-GIG está em cruzeiro modelo Boeing 737-700. #Avião #RobôBum","@R":{"@N":"BRA"}},{"ID":"*UnknowAirE48D5A","@T":"$-12-06T11:53:32-02:00","TimeToBeRemoved":"$-12-06T12:53:32.7566421-02:00","@U":"E48D5A","@I":2,"@A":1,"@M":"Está em aproximação o N (PR-CPT) modelo Cessna Citation Mustang. #Aeroporto* #Avião #RobôBum","@R":{"@N":"*"}},{"ID":"BRAUnknowAirE4814B","@T":"$-12-06T11:53:32-02:00","TimeToBeRemoved":"$-12-06T12:53:32.7576419-02:00","@U":"E4814B","@I":1,"@A":1,"@M":"O PR-VBG está em cruzeiro modelo Boeing 737-800. #Avião #RobôBum","@R":{"@N":"BRA"}},{"ID":"BRAUnknowAirE48F90","@T":"$-12-06T11:53:32-02:00","TimeToBeRemoved":"$-12-06T12:53:32.7616424-02:00","@U":"E48F90","@I":1,"@A":1,"@M":"O PR-AUB está em cruzeiro modelo Embraer 195. #Avião #RobôBum","@R":{"@N":"BRA"}},{"ID":"BRAUnknowAirA9B9EA","@T":"$-12-06T11:53:32-02:00","TimeToBeRemoved":"$-12-06T12:53:32.7616424-02:00","@U":"A9B9EA","@I":1,"@A":1,"@M":"O AVA260 (N726AV) está em cruzeiro modelo Airbus A319 de Rio De Janeiro(GIG) para Bogota. #Avião #RobôBum","@R":{"@N":"BRA"}},{"ID":"AFLUnknowAirA9B9EA","@T":"$-12-06T11:53:32-02:00","TimeToBeRemoved":"$-12-06T12:53:32.7616424-02:00","@U":"A9B9EA","@I":1,"@A":1,"@M":"O AVA260 (N726AV) está em cruzeiro modelo Airbus A319 de Rio De Janeiro(GIG) para Bogota. #Avião #RobôBum","@R":{"@N":"AFL"}},{"ID":"BRAUnknowAirE48B2D","@T":"$-12-06T11:53:32-02:00","TimeToBeRemoved":"$-12-06T12:53:32.7616424-02:00","@U":"E48B2D","@I":1,"@A":1,"@M":"O PR-AXD está em cruzeiro modelo Embraer 195. #Avião #RobôBum","@R":{"@N":"BRA"}},{"ID":"BRAUnknowAirE480CF","@T":"$-12-06T11:53:32-02:00","TimeToBeRemoved":"$-12-06T12:53:32.7626417-02:00","@U":"E480CF","@I":1,"@A":1,"@M":"O PR-MBR está em cruzeiro modelo Airbus A320. #Avião #RobôBum","@R":{"@N":"BRA"}},{"ID":"BRAWideE80200","@T":"$-12-06T11:53:32-02:00","TimeToBeRemoved":"$-12-06T21:53:32.7666417-02:00","@U":"E80200","@I":1,"@A":3,"@M":"Um Boeing 787-8, o LAN750 (CC-BBH) está em cruzeiro de Santiago para São Paulo (Guarulhos). #Avião #RobôBum","@R":{"@N":"BRA"}},{"ID":"XAPWideE80200","@T":"$-12-06T11:53:32-02:00","TimeToBeRemoved":"$-12-06T21:53:32.7676425-02:00","@U":"E80200","@I":1,"@A":3,"@M":"Um Boeing 787-8, o LAN750 (CC-BBH) está em cruzeiro de Santiago para São Paulo (Guarulhos). #Avião #RobôBum","@R":{"@N":"XAP"}},{"ID":"BRAWideE48F44","@T":"$-12-06T11:53:32-02:00","TimeToBeRemoved":"$-12-06T21:53:32.7676425-02:00","@U":"E48F44","@I":1,"@A":2,"@M":"Um Airbus A330-200, o ONE6081 (PR-ONV) está em cruzeiro de Manaus - AM para São Paulo (Guarulhos). #Avião #RobôBum","@R":{"@N":"BRA"}},{"ID":"AFLWideE48F44","@T":"$-12-06T11:53:32-02:00","TimeToBeRemoved":"$-12-06T21:53:32.7676425-02:00","@U":"E48F44","@I":1,"@A":2,"@M":"Um Airbus A330-200, o ONE6081 (PR-ONV) está em cruzeiro de Manaus - AM para São Paulo (Guarulhos). #Avião #RobôBum","@R":{"@N":"AFL"}},{"ID":"BRAWideE491CC","@T":"$-12-06T11:53:32-02:00","TimeToBeRemoved":"$-12-06T21:53:32.7676425-02:00","@U":"E491CC","@I":1,"@A":2,"@M":"Um Airbus A330-200, o AZU8706 (PR-AIT) está em cruzeiro de Campinas - SP para Orlando. #Avião #RobôBum","@R":{"@N":"BRA"}},{"ID":"AFLWideE491CC","@T":"$-12-06T11:53:32-02:00","TimeToBeRemoved":"$-12-06T21:53:32.7676425-02:00","@U":"E491CC","@I":1,"@A":2,"@M":"Um Airbus A330-200, o AZU8706 (PR-AIT) está em cruzeiro de Campinas - SP para Orlando. #Avião #RobôBum","@R":{"@N":"AFL"}},{"ID":"BRAWideA2CE0F","@T":"$-12-06T11:53:32-02:00","TimeToBeRemoved":"$-12-06T21:53:32.7676425-02:00","@U":"A2CE0F","@I":1,"@A":2,"@M":"Um Airbus A330-200, o AVA086 (N280AV) está em cruzeiro de São Paulo (Guarulhos) para Bogota. #Avião #RobôBum","@R":{"@N":"BRA"}},{"ID":"BVHWideA2CE0F","@T":"$-12-06T11:53:32-02:00","TimeToBeRemoved":"$-12-06T21:53:32.7676425-02:00","@U":"A2CE0F","@I":1,"@A":2,"@M":"Um Airbus A330-200, o AVA086 (N280AV) está em cruzeiro de São Paulo (Guarulhos) para Bogota. #Avião #RobôBum","@R":{"@N":"BVH"}},{"ID":"*PluginMetarDFRwy29","@T":"$-12-06T11:53:33.3916765-02:00","TimeToBeRemoved":"2017-12-06T11:53:33.3916765-02:00","@U":null,"@I":7,"@A":3,"@M":"As pistas em operação são agora as pistas  29L e 29R. Há algumas nuvens no céu da capital. (SBBR 061300Z 28013KT 9999 SCT030 SCT100 26/18 Q1020)","@R":{"@N":"*"}},{"ID":"PluginMetarDFSomeCloud","@T":"$-12-06T11:53:33.3916765-02:00","TimeToBeRemoved":"2017-12-06T11:53:33.3916765-02:00","@U":null,"@I":7,"@A":1,"@M":"Há algumas nuvens no céu da capital. (SBBR 061300Z 28013KT 9999 SCT030 SCT100 26/18 Q1020)","@R":{"@N":"*"}},{"ID":"BRAUnknowAirE49023","@T":"$-12-06T11:53:57-02:00","TimeToBeRemoved":"$-12-06T12:53:57.3138062-02:00","@U":"E49023","@I":1,"@A":1,"@M":"O PR-AUD está passando por aqui modelo Embraer 195. #Avião #RobôBum","@R":{"@N":"BRA"}},{"ID":"BRAUnknowAirE48763","@T":"$-12-06T11:53:57-02:00","TimeToBeRemoved":"$-12-06T12:53:57.315806-02:00","@U":"E48763","@I":1,"@A":1,"@M":"Pintado de Rosa, o PR-AYO está passando por aqui modelo Embraer 195. #Avião #RobôBum","@R":{"@N":"BRA"}},{"ID":"BRAUnknowAirE480D1","@T":"$-12-06T11:54:57-02:00","TimeToBeRemoved":"$-12-06T12:54:57.2922505-02:00","@U":"E480D1","@I":1,"@A":1,"@M":"O PR-MHP está voando por aqui, um Airbus A320. #Avião #RobôBum","@R":{"@N":"BRA"}},{"ID":"BRAUnknowAirE483DD","@T":"$-12-06T11:54:57-02:00","TimeToBeRemoved":"$-12-06T12:54:57.2942511-02:00","@U":"E483DD","@I":3,"@A":3,"@M":"Está decolando o TAM3430 (PT-TMA), pista 29R,, um Airbus A319 para Rio De Janeiro(GIG). #Avião #RobôBum","@R":{"@N":"BRA"}},{"ID":"BRAUnknowAirE48624","@T":"$-12-06T11:55:37-02:00","TimeToBeRemoved":"$-12-06T12:55:37.2487982-02:00","@U":"E48624","@I":1,"@A":1,"@M":"O PRALU (PR-ALU) está cruzando a região modelo Embraer Phenom 300. #Avião #RobôBum","@R":{"@N":"BRA"}},{"ID":"UDIUnknowAirE48624","@T":"$-12-06T11:55:37-02:00","TimeToBeRemoved":"$-12-06T12:55:37.2487982-02:00","@U":"E48624","@I":1,"@A":1,"@M":"O PRALU (PR-ALU) está cruzando a região modelo Embraer Phenom 300. #Avião #RobôBum","@R":{"@N":"UDI"}},{"ID":"BRAUnknowAirE488AD","@T":"$-12-06T11:55:57-02:00","TimeToBeRemoved":"$-12-06T12:55:57.2778214-02:00","@U":"E488AD","@I":1,"@A":1,"@M":"Está cruzando a região o PR-VFC, Embraer Phenom 100. #Avião #RobôBum","@R":{"@N":"BRA"}},{"ID":"UBAUnknowAirE488AD","@T":"$-12-06T11:55:57-02:00","TimeToBeRemoved":"$-12-06T12:55:57.2778214-02:00","@U":"E488AD","@I":1,"@A":1,"@M":"Está cruzando a região o PR-VFC, Embraer Phenom 100. #Avião #RobôBum","@R":{"@N":"UBA"}},{"ID":"BRAWideE06588","@T":"$-12-06T11:56:17-02:00","TimeToBeRemoved":"$-12-06T21:56:17.3638078-02:00","@U":"E06588","@I":1,"@A":2,"@M":"Voando a 491 kts está cruzando um Airbus A330-200, o ARG1304 (LV-FVH) de Buenos Aires para Miami. #Avião #RobôBum","@R":{"@N":"BRA"}},{"ID":"CMGWideE06588","@T":"$-12-06T11:56:17-02:00","TimeToBeRemoved":"$-12-06T21:56:17.364808-02:00","@U":"E06588","@I":1,"@A":2,"@M":"Voando a 491 kts está cruzando um Airbus A330-200, o ARG1304 (LV-FVH) de Buenos Aires para Miami. #Avião #RobôBum","@R":{"@N":"CMG"}}]