12/10/2016 22:49:17 ;Um Boeing 787-8, o UAL128 (N26902) está passando por aqui de Rio De Janeiro(GIG) para Houston. #Avião #RobôBum;BRAWideA2A2DF;High;Velocidade (speed) abaixo de 200:480kts e altude maior que 28000:38000, Hex:A2A2DF, ;
12/10/2016 22:49:17 ;Um Boeing 787-8, o UAL128 (N26902) está passando por aqui de Rio De Janeiro(GIG) para Houston. #Avião #RobôBum;MQHWideA2A2DF;High;Velocidade (speed) abaixo de 200:480kts e altude maior que 28000:38000, Hex:A2A2DF, ;
12/10/2016 22:49:17 ;Um Boeing 787-8, o UAL128 (N26902) está cruzando a região. #Avião #RobôBum;BSBWideA2A2DF;High;Velocidade (speed) abaixo de 200:480kts e altude maior que 28000:37975, Hex:A2A2DF, ;
12/10/2016 22:49:17 ;As pistas em operação são agora as pistas 11L e 11R. Há algumas nuvens no céu da capital. (SBBR 130100Z 13003KT 9999 FEW030 SCT080 24/14 Q1019);BSBFilterMetarDFRwy11;High;;
12/10/2016 22:58:24 ;Chegando a hora de descansar! Está pousando o TAM3730 (PT-TMC), A319 de Brasília - DF. #Avião #RobôBum;BRAUnknowAirE4851A;High;Velocidade vertical abaixo de -500:-768 e altude menor que 28000:3075, Hex:E4851A, . !IsKnownAirplane.;
12/10/2016 22:58:24 ;Chegando a hora de descansar! Está pousando o TAM3730 (PT-TMC), A319 de Brasília - DF. #Avião #RobôBum;GYNUnknowAirE4851A;High;Velocidade vertical abaixo de -500:-768 e altude menor que 28000:3075, Hex:E4851A, . !IsKnownAirplane.;
12/10/2016 22:58:24 ;As pistas em operação são agora as pistas 11L e 11R. Há algumas nuvens no céu da capital. (SBBR 130100Z 13003KT 9999 FEW030 SCT080 24/14 Q1019);BSBFilterMetarDFRwy11;High;;
12/10/2016 22:59:21 ;O TAM3730 (PT-TMC) está pousando modelo Airbus A319 de Brasília - DF. #Avião #RobôBum;BRAUnknowAirE4851A;High;Velocidade vertical abaixo de -500:-768 e altude menor que 28000:2450, Hex:E4851A, . !IsKnownAirplane.;
12/10/2016 22:59:21 ;O TAM3730 (PT-TMC) está pousando modelo Airbus A319 de Brasília - DF. #Avião #RobôBum;GYNUnknowAirE4851A;High;Velocidade vertical abaixo de -500:-768 e altude menor que 28000:2450, Hex:E4851A, . !IsKnownAirplane.;
12/10/2016 22:59:21 ;As pistas em operação são agora as pistas 11L e 11R. Há algumas nuvens no céu da capital. (SBBR 130100Z 13003KT 9999 FEW030 SCT080 24/14 Q1019);BSBFilterMetarDFRwy11;High;;
