10/10/2016 21:30:38 ;As pistas em operação são agora as pistas 11L e 11R. Céu aberto na capital federal! (SBBR 110000Z 13007KT CAVOK 25/16 Q1019);BSBFilterMetarDFRwy11;High;;
10/10/2016 21:31:00 ;Começando a missão, está decolando o GLO5322 (PR-GXT), pista 11L,, B738, vai passar pelo Plano Piloto. #Avião #RobôBum;BRAUnknowAirE48FB4;High;Velocidade vertical superior a 500:3776 e altude entre 4000 e 18000:4225, Hex:E48FB4, ;
10/10/2016 21:39:42 ;As pistas em operação são agora as pistas 11L e 11R. Céu aberto na capital federal! (SBBR 110000Z 13007KT CAVOK 25/16 Q1019);BSBFilterMetarDFRwy11;High;;
10/10/2016 21:43:37 ;Está em pousando o GLO6716 (PR-GGM), um Boeing 737-800. #Avião #RobôBum;GYNUnknowAirE481D8;High;Velocidade vertical abaixo de -500:-512 e altude menor que 28000:7000, Hex:E481D8, . !IsKnownAirplane.;
10/10/2016 21:43:37 ;Está em pousando o GLO1148 (PR-VBH), um Boeing 737-700 de Brasília - DF, vai passar pelo centro e Colombo. #Avião #RobôBum;BRAUnknowAirE48339;High;Velocidade vertical abaixo de -500:-704 e altude menor que 28000:3375, Hex:E48339, . !IsKnownAirplane.;
10/10/2016 21:43:37 ;As pistas em operação são agora as pistas 11L e 11R. Céu aberto na capital federal! (SBBR 110000Z 13007KT CAVOK 25/16 Q1019);BSBFilterMetarDFRwy11;High;;
10/10/2016 21:45:15 ;Está em pousando um Boeing 767-300, o UPS417 (N336UP). #Avião #RobôBum;BRAWideA3ADE9;High;Velocidade vertical abaixo de -500:-2816 e altude menor que 28000:25825, Hex:A3ADE9, ;
10/10/2016 21:45:15 ;Está em pousando um Boeing 767-300, o UPS417 (N336UP). #Avião #RobôBum;VCPWideA3ADE9;High;Velocidade vertical abaixo de -500:-2816 e altude menor que 28000:25825, Hex:A3ADE9, ;
10/10/2016 21:45:15 ;As pistas em operação são agora as pistas 11L e 11R. Céu aberto na capital federal! (SBBR 110000Z 13007KT CAVOK 25/16 Q1019);BSBFilterMetarDFRwy11;High;;
10/10/2016 22:03:15 ;O AZU2530 (PR-AQI) está na aproximação da região modelo ATR 72-600 de Belo Horizonte(Confins). #Avião #RobôBum;BRAUnknowAirE48E3C;High;Velocidade vertical abaixo de -500:-576 e altude menor que 28000:3125, Hex:E48E3C, . !IsKnownAirplane.;
10/10/2016 22:03:15 ;O AZU2530 (PR-AQI) está na aproximação da região modelo ATR 72-600 de Belo Horizonte(Confins). #Avião #RobôBum;UBAUnknowAirE48E3C;High;Velocidade vertical abaixo de -500:-576 e altude menor que 28000:3125, Hex:E48E3C, . !IsKnownAirplane.;
10/10/2016 22:03:15 ;As pistas em operação são agora as pistas 11L e 11R. Céu aberto na capital federal! (SBBR 110100Z 13007KT CAVOK 24/15 Q1020);BSBFilterMetarDFRwy11;High;;
10/10/2016 22:08:32 ;Vai pousar daqui a pouco o TAM3218 (PR-MYS), Airbus A320 de São Paulo (Congonhas), vai passar em Taguatinga. #Avião #RobôBum;BRAUnknowAirE48BAB;High;Velocidade vertical abaixo de -500:-768 e altude menor que 28000:4600, Hex:E48BAB, . !IsKnownAirplane.;
10/10/2016 22:08:32 ;Está voando pela região um Boeing 787-8, o UAL128 (N27903) de Rio De Janeiro(GIG) para Houston. #Avião #RobôBum;BRAWideA2CA5F;High;Velocidade (speed) abaixo de 200:0kts e altude maior que 28000:36000, Hex:A2CA5F, ;
10/10/2016 22:08:32 ;Está voando pela região um Boeing 787-8, o UAL128 (N27903) de Rio De Janeiro(GIG) para Houston. #Avião #RobôBum;AAXWideA2CA5F;High;Velocidade (speed) abaixo de 200:0kts e altude maior que 28000:36000, Hex:A2CA5F, ;
10/10/2016 22:08:32 ;As pistas em operação são agora as pistas 11L e 11R. Céu aberto na capital federal! (SBBR 110100Z 13007KT CAVOK 24/15 Q1020);BSBFilterMetarDFRwy11;High;;
10/10/2016 22:11:46 ;Está voando pela região um Boeing 787-8, o UAL128 (N27903) de Rio De Janeiro(GIG) para Houston. #Avião #RobôBum;BRAWideA2CA5F;High;,em Modo S,, Hex:A2CA5F, ;
10/10/2016 22:11:46 ;Levando muambeiros está decolando do aero um Boeing 757-200, o AAL214 (N199AN) para Miami, vai passar via Sobradinho. #Avião #RobôBum;BRAWideA189A7;High;Velocidade vertical superior a 500:2688 e altude entre 4000 e 18000:8375, Hex:A189A7, ;
10/10/2016 22:11:46 ;Com muitas malas só com um travesseiro para encher de compras, está decolando um Boeing 757-200, o AAL214 (N199AN) para MIA, vai passar via Sobradinho.;BSBWideA189A7;High;Velocidade vertical superior a 500:2688 e altude entre 4000 e 18000:8375, Hex:A189A7, ;
10/10/2016 22:11:47 ;Está decolando de Brasília um Boeing 757-200, o AAL214 (N199AN), vai passar em Planaltina e Brasilinha. #AeroportoBSB #Avião #RobôBum;BSBWideA189A7;High;Velocidade vertical superior a 500:2752 e altude entre 4000 e 18000:8400, Hex:A189A7, ;
10/10/2016 22:11:47 ;As pistas em operação são agora as pistas 11L e 11R. Céu aberto na capital federal! (SBBR 110100Z 13007KT CAVOK 24/15 Q1020);BSBFilterMetarDFRwy11;High;;
10/10/2016 22:17:46 ;Um Boeing 787-8, o UAL128 (N27903) está cruzando a região de Rio De Janeiro(GIG) para Houston. #Avião #RobôBum;BRAWideA2CA5F;High;Velocidade (speed) abaixo de 200:486kts e altude maior que 28000:35975, Hex:A2CA5F, ;
10/10/2016 22:17:46 ;Um Boeing 787-8, o UAL128 (N27903) está cruzando a região de Rio De Janeiro(GIG) para Houston. #Avião #RobôBum;SWUZWideA2CA5F;High;Velocidade (speed) abaixo de 200:486kts e altude maior que 28000:35975, Hex:A2CA5F, ;
10/10/2016 22:17:46 ;Um Boeing 787-8, o UAL128 (N27903) está voando pela região de Brasília . #Avião #RobôBum;BSBWideA2CA5F;High;Velocidade (speed) abaixo de 200:486kts e altude maior que 28000:35975, Hex:A2CA5F, ;
10/10/2016 22:17:46 ;As pistas em operação são agora as pistas 11L e 11R. Céu aberto na capital federal! (SBBR 110100Z 13007KT CAVOK 24/15 Q1020);BSBFilterMetarDFRwy11;High;;
10/10/2016 22:42:50 ;Um Boeing 787-8, o UAL128 (N27903) está voando pela região de Brasil afora  de Rio De Janeiro(GIG) para Houston. #Avião #RobôBum;BRAWideA2CA5F;High;Velocidade (speed) abaixo de 200:496kts e altude maior que 28000:35975, Hex:A2CA5F, ;
10/10/2016 22:42:50 ;Um Boeing 787-8, o UAL128 (N27903) está voando pela região de Minaçu  de Rio De Janeiro(GIG) para Houston. #Avião #RobôBum;MQHWideA2CA5F;High;Velocidade (speed) abaixo de 200:496kts e altude maior que 28000:35975, Hex:A2CA5F, ;
10/10/2016 22:42:50 ;Está passando pela capital um Boeing 787-8, o UAL128 (N27903). #Avião #RobôBum;BSBWideA2CA5F;High;Velocidade (speed) abaixo de 200:497kts e altude maior que 28000:35975, Hex:A2CA5F, ;
10/10/2016 22:42:50 ;As pistas em operação são agora as pistas 11L e 11R. Céu aberto na capital federal! (SBBR 110100Z 13007KT CAVOK 24/15 Q1020);BSBFilterMetarDFRwy11;High;;
